ONEWEB-0456             
1 51646U 22012AA  25310.83757497 -.00000153  00000+0 -47540-3 0  9993
2 51646  87.8796  80.5506 0001720 102.9578 257.1742 13.10370238180224
ONEWEB-0457             
1 51647U 22012AB  25310.66163455  .00000651  00000+0  18288-2 0  9997
2 51647  87.8786  80.6368 0001269  84.4125 275.7147 13.10374192180207
ONEWEB-0458             
1 51648U 22012AC  25310.75954522 -.00012843  00000+0 -36848-1 0  9990
2 51648  87.8788  80.5890 0001038  76.9935 283.1308 13.10432589180171
ONEWEB-0461             
1 51649U 22012AD  25310.88798830  .00000114  00000+0  26156-3 0  9992
2 51649  87.9135  50.0471 0001676  96.5520 263.5803 13.17651148184618
ONEWEB-0463             
1 51650U 22012AE  25310.71754721  .00000067  00000+0  13972-3 0  9996
2 51650  87.9115  50.1315 0001635 102.9305 257.2009 13.17651327184374
ONEWEB-0464             
1 51651U 22012AF  25310.75624713  .00000079  00000+0  19047-3 0  9990
2 51651  87.8782  80.6278 0001799 105.2097 254.9230 13.10370468180198
ONEWEB-0468             
1 51652U 22012AG  25310.76286916 -.00000260  00000+0 -78026-3 0  9997
2 51652  87.8787  80.6191 0001617 107.9131 252.2173 13.10370021180175
ONEWEB-0473             
1 51653U 22012AH  25310.82430882  .00000486  00000+0  13560-2 0  9997
2 51653  87.8785  80.6105 0001503 103.8843 256.2452 13.10371713180182
ONEWEB-0474             
1 51654U 22012AJ  25310.81601512  .00000691  00000+0  19433-2 0  9990
2 51654  87.8791  80.5758 0001666 108.2832 251.8477 13.10373748180177
ONEWEB-0475             
1 51655U 22012AK  25310.72936150  .00000075  00000+0  15917-3 0  9990
2 51655  87.9123  50.1155 0001829 127.1405 232.9894 13.17651141184393
ONEWEB-0490             
1 54113U 22138A   25310.15738722  .00000074  00000+0  15134-3 0  9993
2 54113  87.9241 349.3303 0002056 100.5399 259.5966 13.19725253147419
ONEWEB-0492             
1 54114U 22138B   25310.56175319  .00000060  00000+0  11655-3 0  9995
2 54114  87.9231 349.2683 0002115  96.5290 263.6084 13.19727366147479
ONEWEB-0495             
1 54115U 22138C   25310.38799850  .00000014  00000+0  32690-5 0  9991
2 54115  87.9224 349.3082 0002418 110.0712 250.0681 13.19725498147436
ONEWEB-0497             
1 54116U 22138D   25310.55227844  .00000076  00000+0  15833-3 0  9996
2 54116  87.9232 349.2591 0001966  97.7880 262.3476 13.19725548147449
ONEWEB-0499             
1 54117U 22138E   25310.38406650  .00000108  00000+0  23824-3 0  9997
2 54117  87.9234 349.3066 0001822 103.0118 257.1218 13.19725729147432
ONEWEB-0500             
1 54118U 22138F   25310.08316335  .00000074  00000+0  15195-3 0  9999
2 54118  87.9233 349.3536 0001915  94.1492 265.9860 13.19725857147401
ONEWEB-0501             
1 54119U 22138G   25310.56807659 -.00000002  00000+0 -36177-4 0  9994
2 54119  87.9243 349.2527 0002135 106.1745 253.9623 13.19726413147449
ONEWEB-0502             
1 54120U 22138H   25310.55385479 -.00000023  00000+0 -89798-4 0  9996
2 54120  87.9235 349.2372 0001864 102.9454 257.1887 13.19726236147462
ONEWEB-0503             
1 54121U 22138J   25310.39116676  .00000041  00000+0  70447-4 0  9999
2 54121  87.9239 349.2741 0001596  99.7989 260.3324 13.19725994147434
ONEWEB-0504             
1 54122U 22138K   25310.53016859  .00000109  00000+0  24071-3 0  9994
2 54122  87.9233 349.2633 0001910 104.6424 255.4921 13.19725541147468
ONEWEB-0505             
1 54123U 22138L   25310.14792358  .00000081  00000+0  17035-3 0  9998
2 54123  87.9239 349.3279 0002178 110.1446 249.9921 13.19726138147398
ONEWEB-0506             
1 54124U 22138M   25310.50173294  .00000033  00000+0  49836-4 0  9993
2 54124  87.9239 349.2549 0001951 101.8296 258.3056 13.19726236147433
ONEWEB-0507             
1 54125U 22138N   25310.52226458  .00000131  00000+0  29464-3 0  9990
2 54125  87.9222 349.2925 0002032 101.0125 259.1236 13.19726180147480
ONEWEB-0508             
1 54126U 22138P   25310.51910234  .00000059  00000+0  11547-3 0  9994
2 54126  87.9230 349.2830 0002207 103.4589 256.6789 13.19726454147466
ONEWEB-0509             
1 54127U 22138Q   25310.56965089  .00000012  00000+0 -28182-5 0  9993
2 54127  87.9244 349.2404 0001938  99.9896 260.1455 13.19726115147441
ONEWEB-0510             
1 54128U 22138R   25310.40653575 -.00000041  00000+0 -13312-3 0  9991
2 54128  87.9182 318.8684 0001651  75.4768 284.6548 13.20771098149879
ONEWEB-0511             
1 54129U 22138S   25310.56649219 -.00000007  00000+0 -49152-4 0  9993
2 54129  87.9237 349.2448 0001636 102.4269 257.7047 13.19726081147476
ONEWEB-0512             
1 54130U 22138T   25310.55858934  .00000053  00000+0  99304-4 0  9993
2 54130  87.9223 349.2767 0002001 107.8959 252.2393 13.19726878147444
ONEWEB-0513             
1 54131U 22138U   25310.50454513  .00000016  00000+0  74227-5 0  9991
2 54131  87.9244 349.2481 0001788 116.7480 243.3837 13.20319087147334
ONEWEB-0514             
1 54132U 22138V   25310.49857473 -.00000001  00000+0 -34186-4 0  9997
2 54132  87.9234 349.2702 0001762  94.0571 266.0764 13.19725852147454
ONEWEB-0515             
1 54133U 22138W   25310.46965939 -.00000049  00000+0 -15224-3 0  9995
2 54133  87.9188 318.8391 0002296  69.9720 290.1660 13.20772264149905
ONEWEB-0516             
1 54134U 22138X   25310.54911490  .00000108  00000+0  23855-3 0  9991
2 54134  87.9218 349.2835 0001998  97.9980 262.1380 13.19726242147468
ONEWEB-0517             
1 54135U 22138Y   25310.52858591  .00000094  00000+0  20223-3 0  9992
2 54135  87.9243 349.2614 0001618  99.6783 260.4533 13.19724650147463
ONEWEB-0518             
1 54136U 22138Z   25310.47172209  .00000033  00000+0  49909-4 0  9998
2 54136  87.9220 349.3006 0001927 100.1102 260.0248 13.19725507147451
ONEWEB-0519             
1 54137U 22138AA  25310.57281163 -.00000001  00000+0 -35515-4 0  9995
2 54137  87.9243 349.2441 0001670 100.5399 259.5923 13.19725670147472
ONEWEB-0520             
1 54138U 22138AB  25310.38010751  .00000138  00000+0  31128-3 0  9992
2 54138  87.9238 349.2863 0002164 103.0565 257.0809 13.19725640147436
ONEWEB-0521             
1 54139U 22138AC  25310.56490960  .00000058  00000+0  11213-3 0  9991
2 54139  87.9240 349.2350 0001629  96.7573 263.3745 13.19726780147405
ONEWEB-0522             
1 54140U 22138AD  25310.39273729 -.00000012  00000+0 -61782-4 0  9995
2 54140  87.9240 349.2703 0002034 102.2572 257.8789 13.19726630147424
ONEWEB-0523             
1 54141U 22138AE  25310.45703820  .00000028  00000+0  36862-4 0  9999
2 54141  87.9178 318.8630 0001661  64.3150 295.8155 13.20771431149906
ONEWEB-0524             
1 54142U 22138AF  25310.44599068  .00000059  00000+0  11435-3 0  9998
2 54142  87.9182 318.8670 0002547  75.4450 284.6966 13.20770565149909
ONEWEB-0525             
1 54143U 22138AG  25310.56333201  .00000108  00000+0  23868-3 0  9995
2 54143  87.9237 349.2582 0002075 104.0126 256.1238 13.19726316147464
ONEWEB-0526             
1 54144U 22138AH  25310.52069122  .00000079  00000+0  16409-3 0  9990
2 54144  87.9242 349.2541 0001985  97.0191 263.1168 13.19725233147432
ONEWEB-0529             
1 54145U 22138AJ  25310.37221299  .00000112  00000+0  24860-3 0  9997
2 54145  87.9225 349.3158 0002057 100.9981 259.1383 13.19725811147437
ONEWEB-0531             
1 54146U 22138AK  25310.43178289  .00000007  00000+0 -13606-4 0  9996
2 54146  87.9197 318.8610 0002056  66.8192 293.3158 13.20772714149903
ONEWEB-0535             
1 54147U 22138AL  25310.55701448  .00000120  00000+0  26697-3 0  9997
2 54147  87.9237 349.2415 0001639  87.5081 272.6239 13.19726340147475
ONEWEB-0536             
1 54148U 22138AM  25310.49491837  .00000060  00000+0  11571-3 0  9997
2 54148  87.9176 318.8942 0002181  63.4121 296.7236 13.20772102149909
ONEWEB-0527             
1 54642U 22166A   25310.92605866  .00000007  00000+0 -15620-4 0  9996
2 54642  87.9172 288.3392 0001978  88.4824 271.6537 13.21828140142177
ONEWEB-0528             
1 54643U 22166B   25310.93266403  .00000004  00000+0 -22259-4 0  9991
2 54643  87.9178 288.3408 0001950  88.4479 271.6878 13.21824734142182
ONEWEB-0539             
1 54644U 22166C   25310.89481548  .00000063  00000+0  12015-3 0  9998
2 54644  87.9170 288.3150 0001759  92.3923 267.7413 13.21828040142178
ONEWEB-0540             
1 54645U 22166D   25310.90153774 -.00000042  00000+0 -13277-3 0  9998
2 54645  87.9163 288.3531 0001747  93.0185 267.1149 13.21827314142161
ONEWEB-0542             
1 54646U 22166E   25310.90469670 -.00000234  00000+0 -59863-3 0  9998
2 54646  87.9171 288.3106 0001341  91.3269 268.8019 13.21818784142179
ONEWEB-0545             
1 54647U 22166F   25310.94582340 -.00000022  00000+0 -84359-4 0  9997
2 54647  87.9174 288.3217 0001495  96.9828 263.1476 13.21825234142148
ONEWEB-0580             
1 54648U 22166G   25310.91948686 -.00000043  00000+0 -13504-3 0  9990
2 54648  87.9172 288.3256 0001474  86.8858 273.2444 13.21826004142185
ONEWEB-0582             
1 54649U 22166H   25310.88658932  .00000071  00000+0  13926-3 0  9996
2 54649  87.9172 288.3255 0001374  90.9871 269.1420 13.21827847142156
ONEWEB-0583             
1 54650U 22166J   25310.89810797  .00000089  00000+0  18449-3 0  9992
2 54650  87.9173 288.3482 0001770  89.4524 270.6813 13.21827527142168
ONEWEB-0584             
1 54651U 22166K   25310.91785841 -.00000011  00000+0 -58610-4 0  9999
2 54651  87.9173 288.3296 0001534  83.9769 276.1540 13.21826832142155
ONEWEB-0585             
1 54652U 22166L   25310.94252685 -.00000025  00000+0 -91868-4 0  9995
2 54652  87.9174 288.3098 0001961  83.6456 276.4901 13.21823908142167
ONEWEB-0586             
1 54653U 22166M   25310.88000728  .00000025  00000+0  28103-4 0  9998
2 54653  87.9174 288.3476 0001745  88.5594 271.5740 13.21827135142157
ONEWEB-0587             
1 54654U 22166N   25310.88987594  .00000218  00000+0  49536-3 0  9990
2 54654  87.9175 288.2997 0002281  81.6096 278.5297 13.21828696142318
